[{"OBJECT_NAME":"OBJECT D","OBJECT_ID":"2024-203D","EPOCH":"2026-03-09T23:01:14.628576","MEAN_MOTION":15.25394324,"ECCENTRICITY":0.00105281,"INCLINATION":97.4343,"RA_OF_ASC_NODE":139.6527,"ARG_OF_PERICENTER":340.1906,"MEAN_ANOMALY":19.8921,"EPHEMERIS_TYPE":0,"CLASSIFICATION_TYPE":"U","NORAD_CAT_ID":61872,"ELEMENT_SET_NO":999,"REV_AT_EPOCH":7378,"BSTAR":0.00059366578,"MEAN_MOTION_DOT":0.00014956,"MEAN_MOTION_DDOT":0},{"OBJECT_NAME":"STARLINK-35903","OBJECT_ID":"2025-303F","EPOCH":"2026-03-09T09:41:59.733312","MEAN_MOTION":15.27585974,"ECCENTRICITY":6.613e-5,"INCLINATION":43.0024,"RA_OF_ASC_NODE":312.1475,"ARG_OF_PERICENTER":283.1485,"MEAN_ANOMALY":76.9293,"EPHEMERIS_TYPE":0,"CLASSIFICATION_TYPE":"U","NORAD_CAT_ID":67168,"ELEMENT_SET_NO":999,"REV_AT_EPOCH":1269,"BSTAR":0.00090351764,"MEAN_MOTION_DOT":0.00024688,"MEAN_MOTION_DDOT":0}]
